{"type": "FeatureCollection", "features": [ {"type": "Feature", "properties": {"norad_id": 58662, "name": "TIANMU-1 21", "group": "weather", "lat": -79.65637671666155, "lon": -119.63438418625422, "alt_km": 474.47520601148335, "timestamp": "2025-12-18T15:47:10.863054+00:00", "meta": {"OBJECT_NAME": "TIANMU-1 21", "OBJECT_ID": "2023-208C", "EPOCH": "2025-12-18T06:48:09.546048", "MEAN_MOTION": 15.31668928, "ECCENTRICITY": 0.00060749, "INCLINATION": 97.4378, "RA_OF_ASC_NODE": 105.6962, "ARG_OF_PERICENTER": 236.7489, "MEAN_ANOMALY": 123.317, "EPHEMERIS_TYPE": 0, "CLASSIFICATION_TYPE": "U", "NORAD_CAT_ID": 58662, "ELEMENT_SET_NO": 999, "REV_AT_EPOCH": 10984, "BSTAR": 0.000326602, "MEAN_MOTION_DOT": 9.916e-05, "MEAN_MOTION_DDOT": 0}, "tle": {"line1": "1 58662U 23208C   25352.28344382  .00009916  00000+0  32660-3 0  9997", "line2": "2 58662  97.4378 105.6962 0006074 236.7489 123.3170 15.31668928109840"}}, "geometry": {"type": "Point", "coordinates": [-119.63438418625422, -79.65637671666155]}}, {"type": "Feature", "properties": {"norad_id": 58663, "name": "TIANMU-1 22", "group": "weather", "lat": 76.93527920826756, "lon": -41.9950049687003, "alt_km": 477.1347588736462, "timestamp": "2025-12-18T15:47:10.863074+00:00", "meta": {"OBJECT_NAME": "TIANMU-1 22", "OBJECT_ID": "2023-208D", "EPOCH": "2025-12-18T07:29:12.431616", "MEAN_MOTION": 15.27698394, "ECCENTRICITY": 0.00027002, "INCLINATION": 97.4386, "RA_OF_ASC_NODE": 103.3949, "ARG_OF_PERICENTER": 257.3613, "MEAN_ANOMALY": 102.7324, "EPHEMERIS_TYPE": 0, "CLASSIFICATION_TYPE": "U", "NORAD_CAT_ID": 58663, "ELEMENT_SET_NO": 999, "REV_AT_EPOCH": 10968, "BSTAR": 0.00028851105, "MEAN_MOTION_DOT": 7.736e-05, "MEAN_MOTION_DDOT": 0}, "tle": {"line1": "1 58663U 23208D   25352.31194944  .00007736  00000+0  28851-3 0  9994", "line2": "2 58663  97.4386 103.3949 0002700 257.3613 102.7324 15.27698394109689"}}, "geometry": {"type": "Point", "coordinates": [-41.9950049687003, 76.93527920826756]}}, {"type": "Feature", "properties": {"norad_id": 58700, "name": "TIANMU-1 15", "group": "weather", "lat": 17.572908219178025, "lon": -3.5162027783804937, "alt_km": 493.83415438319844, "timestamp": "2025-12-18T15:47:10.863086+00:00", "meta": {"OBJECT_NAME": "TIANMU-1 15", "OBJECT_ID": "2024-004A", "EPOCH": "2025-12-18T07:12:00.544320", "MEAN_MOTION": 15.24479942, "ECCENTRICITY": 0.00059513, "INCLINATION": 97.4621, "RA_OF_ASC_NODE": 173.7485, "ARG_OF_PERICENTER": 266.955, "MEAN_ANOMALY": 93.1006, "EPHEMERIS_TYPE": 0, "CLASSIFICATION_TYPE": "U", "NORAD_CAT_ID": 58700, "ELEMENT_SET_NO": 999, "REV_AT_EPOCH": 10819, "BSTAR": 0.00024899841, "MEAN_MOTION_DOT": 6.048e-05, "MEAN_MOTION_DDOT": 0}, "tle": {"line1": "1 58700U 24004A   25352.30000630  .00006048  00000+0  24900-3 0  9994", "line2": "2 58700  97.4621 173.7485 0005951 266.9550  93.1006 15.24479942108194"}}, "geometry": {"type": "Point", "coordinates": [-3.5162027783804937, 17.572908219178025]}}, {"type": "Feature", "properties": {"norad_id": 58701, "name": "TIANMU-1 16", "group": "weather", "lat": -63.34719806317525, "lon": -21.63686561561122, "alt_km": 496.8033483830768, "timestamp": "2025-12-18T15:47:10.863101+00:00", "meta": {"OBJECT_NAME": "TIANMU-1 16", "OBJECT_ID": "2024-004B", "EPOCH": "2025-12-18T06:50:28.396032", "MEAN_MOTION": 15.2450594, "ECCENTRICITY": 0.00043309, "INCLINATION": 97.4562, "RA_OF_ASC_NODE": 173.1177, "ARG_OF_PERICENTER": 271.2946, "MEAN_ANOMALY": 88.7795, "EPHEMERIS_TYPE": 0, "CLASSIFICATION_TYPE": "U", "NORAD_CAT_ID": 58701, "ELEMENT_SET_NO": 999, "REV_AT_EPOCH": 10819, "BSTAR": 0.00022766901, "MEAN_MOTION_DOT": 5.527e-05, "MEAN_MOTION_DDOT": 0}, "tle": {"line1": "1 58701U 24004B   25352.28505088  .00005527  00000+0  22767-3 0  9999", "line2": "2 58701  97.4562 173.1177 0004330 271.2946  88.7795 15.24505940108192"}}, "geometry": {"type": "Point", "coordinates": [-21.63686561561122, -63.34719806317525]}}, {"type": "Feature", "properties": {"norad_id": 58702, "name": "TIANMU-1 17", "group": "weather", "lat": -30.06396551811463, "lon": 178.2513949452024, "alt_km": 496.8752134096994, "timestamp": "2025-12-18T15:47:10.863112+00:00", "meta": {"OBJECT_NAME": "TIANMU-1 17", "OBJECT_ID": "2024-004C", "EPOCH": "2025-12-18T06:28:03.753696", "MEAN_MOTION": 15.24549297, "ECCENTRICITY": 0.0003498, "INCLINATION": 97.4595, "RA_OF_ASC_NODE": 173.5152, "ARG_OF_PERICENTER": 273.5976, "MEAN_ANOMALY": 86.4861, "EPHEMERIS_TYPE": 0, "CLASSIFICATION_TYPE": "U", "NORAD_CAT_ID": 58702, "ELEMENT_SET_NO": 999, "REV_AT_EPOCH": 10818, "BSTAR": 0.00023426421, "MEAN_MOTION_DOT": 5.696e-05, "MEAN_MOTION_DDOT": 0}, "tle": {"line1": "1 58702U 24004C   25352.26948789  .00005696  00000+0  23426-3 0  9997", "line2": "2 58702  97.4595 173.5152 0003498 273.5976  86.4861 15.24549297108189"}}, "geometry": {"type": "Point", "coordinates": [178.2513949452024, -30.06396551811463]}}, {"type": "Feature", "properties": {"norad_id": 58703, "name": "TIANMU-1 18", "group": "weather", "lat": 60.05588676753675, "lon": 160.94801785850325, "alt_km": 488.08868193134094, "timestamp": "2025-12-18T15:47:10.863122+00:00", "meta": {"OBJECT_NAME": "TIANMU-1 18", "OBJECT_ID": "2024-004D", "EPOCH": "2025-12-18T07:38:37.459968", "MEAN_MOTION": 15.24535755, "ECCENTRICITY": 0.00028605, "INCLINATION": 97.4612, "RA_OF_ASC_NODE": 173.7605, "ARG_OF_PERICENTER": 271.6381, "MEAN_ANOMALY": 88.4529, "EPHEMERIS_TYPE": 0, "CLASSIFICATION_TYPE": "U", "NORAD_CAT_ID": 58703, "ELEMENT_SET_NO": 999, "REV_AT_EPOCH": 10819, "BSTAR": 0.00023827166, "MEAN_MOTION_DOT": 5.792e-05, "MEAN_MOTION_DDOT": 0}, "tle": {"line1": "1 58703U 24004D   25352.31848912  .00005792  00000+0  23827-3 0  9993", "line2": "2 58703  97.4612 173.7605 0002860 271.6381  88.4529 15.24535755108194"}}, "geometry": {"type": "Point", "coordinates": [160.94801785850325, 60.05588676753675]}}, {"type": "Feature", "properties": {"norad_id": 58990, "name": "INSAT-3DS", "group": "weather", "lat": -0.010545316496892363, "lon": 46.40948991212685, "alt_km": 35789.220154829134, "timestamp": "2025-12-18T15:47:10.863134+00:00", "meta": {"OBJECT_NAME": "INSAT-3DS", "OBJECT_ID": "2024-033A", "EPOCH": "2025-12-18T01:42:01.949760", "MEAN_MOTION": 1.00272468, "ECCENTRICITY": 0.00010957, "INCLINATION": 0.0499, "RA_OF_ASC_NODE": 112.0469, "ARG_OF_PERICENTER": 159.0485, "MEAN_ANOMALY": 283.4496, "EPHEMERIS_TYPE": 0, "CLASSIFICATION_TYPE": "U", "NORAD_CAT_ID": 58990, "ELEMENT_SET_NO": 999, "REV_AT_EPOCH": 4525, "BSTAR": 0, "MEAN_MOTION_DOT": -1.31e-06, "MEAN_MOTION_DDOT": 0}, "tle": {"line1": "1 58990U 24033A   25352.07085590 -.00000131  00000+0  00000+0 0  9998", "line2": "2 58990   0.0499 112.0469 0001095 159.0485 283.4496  1.00272468 45257"}}, "geometry": {"type": "Point", "coordinates": [46.40948991212685, -0.010545316496892363]}}, {"type": "Feature", "properties": {"norad_id": 59051, "name": "METEOR-M2 4", "group": "weather", "lat": -43.453400407910244, "lon": 121.1549896803644, "alt_km": 826.0783085518851, "timestamp": "2025-12-18T15:47:10.863147+00:00", "meta": {"OBJECT_NAME": "METEOR-M2 4", "OBJECT_ID": "2024-039A", "EPOCH": "2025-12-18T06:17:41.378208", "MEAN_MOTION": 14.22402168, "ECCENTRICITY": 0.00067403, "INCLINATION": 98.6773, "RA_OF_ASC_NODE": 309.0847, "ARG_OF_PERICENTER": 342.3787, "MEAN_ANOMALY": 17.7156, "EPHEMERIS_TYPE": 0, "CLASSIFICATION_TYPE": "U", "NORAD_CAT_ID": 59051, "ELEMENT_SET_NO": 999, "REV_AT_EPOCH": 9354, "BSTAR": 2.6943396e-05, "MEAN_MOTION_DOT": 1.6e-07, "MEAN_MOTION_DDOT": 0}, "tle": {"line1": "1 59051U 24039A   25352.26228447  .00000016  00000+0  26943-4 0  9994", "line2": "2 59051  98.6773 309.0847 0006740 342.3787  17.7156 14.22402168 93542"}}, "geometry": {"type": "Point", "coordinates": [121.1549896803644, -43.453400407910244]}}, {"type": "Feature", "properties": {"norad_id": 60133, "name": "GOES 19", "group": "weather", "lat": 0.005188640128165195, "lon": -110.8977598606122, "alt_km": 35784.92982357319, "timestamp": "2025-12-18T15:47:10.863160+00:00", "meta": {"OBJECT_NAME": "GOES 19", "OBJECT_ID": "2024-119A", "EPOCH": "2025-12-18T02:39:56.862720", "MEAN_MOTION": 1.00271699, "ECCENTRICITY": 0.00010443, "INCLINATION": 0.0039, "RA_OF_ASC_NODE": 99.4329, "ARG_OF_PERICENTER": 223.6813, "MEAN_ANOMALY": 88.6641, "EPHEMERIS_TYPE": 0, "CLASSIFICATION_TYPE": "U", "NORAD_CAT_ID": 60133, "ELEMENT_SET_NO": 999, "REV_AT_EPOCH": 514, "BSTAR": 0, "MEAN_MOTION_DOT": -2.23e-06, "MEAN_MOTION_DDOT": 0}, "tle": {"line1": "1 60133U 24119A   25352.11107480 -.00000223  00000+0  00000+0 0  9995", "line2": "2 60133   0.0039  99.4329 0001044 223.6813  88.6641  1.00271699  5145"}}, "geometry": {"type": "Point", "coordinates": [-110.8977598606122, 0.005188640128165195]}}, {"type": "Feature", "properties": {"norad_id": 65815, "name": "FENGYUN 3H", "group": "weather", "lat": 49.00498904666944, "lon": -77.97837152997374, "alt_km": 820.8881050675727, "timestamp": "2025-12-18T15:47:10.863173+00:00", "meta": {"OBJECT_NAME": "FENGYUN 3H", "OBJECT_ID": "2025-219A", "EPOCH": "2025-12-18T07:05:48.227712", "MEAN_MOTION": 14.19906205, "ECCENTRICITY": 6.949e-05, "INCLINATION": 98.6591, "RA_OF_ASC_NODE": 291.7655, "ARG_OF_PERICENTER": 102.1844, "MEAN_ANOMALY": 257.9411, "EPHEMERIS_TYPE": 0, "CLASSIFICATION_TYPE": "U", "NORAD_CAT_ID": 65815, "ELEMENT_SET_NO": 999, "REV_AT_EPOCH": 1171, "BSTAR": 4.6209696e-05, "MEAN_MOTION_DOT": 5.5e-07, "MEAN_MOTION_DDOT": 0}, "tle": {"line1": "1 65815U 25219A   25352.29569708  .00000055  00000+0  46210-4 0  9993", "line2": "2 65815  98.6591 291.7655 0000694 102.1844 257.9411 14.19906205 11715"}}, "geometry": {"type": "Point", "coordinates": [-77.97837152997374, 49.00498904666944]}}]}